     2              NAVIGATION DATA                         RINEX VERSION / TYPE
CCRINEXN V1.6.0 UX  CDDIS               28-MAY-17 17:31     PGM / RUN BY / DATE 
IGS BROADCAST EPHEMERIS FILE                                COMMENT             
    0.6519D-08  0.2235D-07 -0.5960D-07 -0.1192D-06          ION ALPHA           
    0.8602D+05  0.9830D+05 -0.6554D+05 -0.5243D+06          ION BETA            
    0.186264514923D-08 0.000000000000D+00   147456     1951 DELTA-UTC: A0,A1,T,W
    18                                                      LEAP SECONDS        
                                                            END OF HEADER       
26 17  5 27 12  0  0.0-0.499353744090D-03 0.488853402203D-11 0.000000000000D+00
    0.590000000000D+02 0.602500000000D+02 0.490341853278D-08 0.460674497742D-01
    0.298395752907D-05 0.181294069625D-02 0.536441802978D-06 0.515370581627D+04
    0.561600000000D+06-0.316649675369D-07 0.177684228471D+01 0.502914190292D-07
    0.958632827637D+00 0.365062500000D+03 0.980318799013D-01-0.862893085818D-08
    0.357157734196D-11 0.100000000000D+01 0.195000000000D+04 0.000000000000D+00
    0.200000000000D+01 0.000000000000D+00 0.745058059692D-08 0.590000000000D+02
    0.554418000000D+06 0.400000000000D+01 0.000000000000D+00 0.000000000000D+00
27 17  5 27 12  0  0.0 0.264985021204D-03 0.670752342558D-11 0.000000000000D+00
    0.930000000000D+02-0.148625000000D+03 0.397980863215D-08-0.167904447755D+01
   -0.768527388573D-05 0.484126945958D-02 0.555440783501D-05 0.515366722679D+04
    0.561600000000D+06-0.577419996262D-07 0.283226609393D+01-0.145286321640D-06
    0.975137813193D+00 0.281125000000D+03 0.351878497335D+00-0.790461497323D-08
   -0.299298181256D-09 0.100000000000D+01 0.195000000000D+04 0.000000000000D+00
    0.200000000000D+01 0.000000000000D+00 0.139698386192D-08 0.930000000000D+02
    0.554418000000D+06 0.400000000000D+01 0.000000000000D+00 0.000000000000D+00
28 17  5 27 12  0  0.0 0.616118777543D-03 0.306954461848D-11 0.000000000000D+00
    0.590000000000D+02 0.167500000000D+02 0.441911263138D-08-0.838752610007D+00
    0.113248825073D-05 0.197361807805D-01 0.465661287308D-06 0.515364511681D+04
    0.561600000000D+06-0.219792127609D-06 0.187103956813D+01 0.100582838059D-06
    0.988203487122D+00 0.387406250000D+03-0.156972938260D+01-0.867678995320D-08
    0.392873494154D-11 0.100000000000D+01 0.195000000000D+04 0.000000000000D+00
    0.400000000000D+01 0.000000000000D+00-0.111758708954D-07 0.590000000000D+02
    0.554400000000D+06 0.000000000000D+00 0.000000000000D+00 0.000000000000D+00
29 17  5 27 12  0  0.0 0.600624363869D-03-0.352429196937D-11 0.000000000000D+00
    0.650000000000D+02-0.159718750000D+03 0.396230790317D-08 0.213557103053D-01
   -0.831298530102D-05 0.705939368345D-03 0.658445060253D-05 0.515362977600D+04
    0.561600000000D+06 0.670552253723D-07 0.289436138097D+01 0.409781932831D-07
    0.981397028154D+00 0.262625000000D+03 0.354750781914D+00-0.798783272529D-08
   -0.372872674501D-09 0.100000000000D+01 0.195000000000D+04 0.000000000000D+00
    0.290000000000D+01 0.000000000000D+00-0.977888703346D-08 0.650000000000D+02
    0.554400000000D+06 0.400000000000D+01 0.000000000000D+00 0.000000000000D+00
30 17  5 27 12  0  0.0 0.155766494572D-03-0.102318153950D-11 0.000000000000D+00
    0.610000000000D+02 0.144343750000D+03 0.472876840076D-08 0.180090394580D+01
    0.769644975662D-05 0.283982139081D-02 0.922940671444D-05 0.515368276405D+04
    0.561600000000D+06 0.689178705216D-07 0.801816232602D+00 0.819563865662D-07
    0.948309940778D+00 0.196625000000D+03 0.309148915620D+01-0.815069665209D-08
    0.235724104569D-10 0.100000000000D+01 0.195000000000D+04 0.000000000000D+00
    0.290000000000D+01 0.000000000000D+00 0.372529029846D-08 0.610000000000D+02
    0.554400000000D+06 0.400000000000D+01 0.000000000000D+00 0.000000000000D+00
32 17  5 27 12  0  0.0-0.424844212830D-03-0.100044417195D-10 0.000000000000D+00
    0.550000000000D+02-0.195000000000D+02 0.484127308703D-08-0.103749798496D+01
   -0.961124897003D-06 0.122695555910D-02 0.924058258533D-05 0.515372254753D+04
    0.561600000000D+06-0.931322574616D-08-0.311952800441D+00-0.372529029846D-08
    0.958239769344D+00 0.200093750000D+03-0.259878142508D+01-0.802319134098D-08
   -0.611096883210D-09 0.100000000000D+01 0.195000000000D+04 0.000000000000D+00
    0.200000000000D+01 0.000000000000D+00 0.465661287308D-09 0.550000000000D+02
    0.559056000000D+06 0.400000000000D+01 0.000000000000D+00 0.000000000000D+00
 3 17  5 27 13 59 44.0-0.983108766377D-04 0.204636307899D-11 0.000000000000D+00
    0.150000000000D+02 0.216562500000D+02 0.490663295239D-08 0.285253184102D+01
    0.124610960484D-05 0.682168058120D-03 0.534579157829D-05 0.515372159195D+04
    0.568784000000D+06-0.502914190292D-07-0.135161481575D+01-0.316649675369D-07
    0.959347066668D+00 0.272968750000D+03 0.503922540111D-01-0.820855620503D-08
    0.447161483214D-09 0.100000000000D+01 0.195000000000D+04 0.000000000000D+00
    0.200000000000D+01 0.000000000000D+00 0.232830643654D-08 0.150000000000D+02
    0.568740000000D+06 0.400000000000D+01 0.000000000000D+00 0.000000000000D+00
10 17  5 27 13 59 44.0-0.425670295954D-04 0.105728759081D-10 0.000000000000D+00
    0.300000000000D+01 0.155000000000D+02 0.497199281774D-08 0.127396409255D+01
    0.754371285439D-06 0.252858398016D-02 0.558048486710D-05 0.515366066742D+04
    0.568784000000D+06-0.335276126862D-07-0.135533155223D+01 0.149011611938D-07
    0.959513181015D+00 0.270593750000D+03-0.276478555820D+01-0.817569769348D-08
    0.353943314588D-09 0.100000000000D+01 0.195000000000D+04 0.000000000000D+00
    0.200000000000D+01 0.000000000000D+00 0.186264514923D-08 0.300000000000D+01
    0.567318000000D+06 0.400000000000D+01 0.000000000000D+00 0.000000000000D+00
15 17  5 27 13 59 44.0-0.350662041456D-03-0.682121026330D-12 0.000000000000D+00
    0.350000000000D+02-0.175937500000D+02 0.543129766392D-08-0.156863194535D+01
   -0.112131237984D-05 0.913927913643D-02 0.829994678497D-05 0.515379674912D+04
    0.568784000000D+06 0.134110450745D-06-0.376755055006D+00-0.540167093277D-07
    0.929300616484D+00 0.196000000000D+03 0.582937307142D+00-0.829213111483D-08
   -0.464662212189D-09 0.100000000000D+01 0.195000000000D+04 0.000000000000D+00
    0.200000000000D+01 0.000000000000D+00-0.107102096081D-07 0.350000000000D+02
    0.561600000000D+06 0.400000000000D+01 0.000000000000D+00 0.000000000000D+00
17 17  5 27 13 59 44.0-0.177640002221D-03 0.193267624127D-11 0.000000000000D+00
    0.120000000000D+02-0.131906250000D+03 0.404195388271D-08-0.693564442109D+00
   -0.689923763275D-05 0.116260237992D-01 0.648386776447D-05 0.515364021111D+04
    0.568784000000D+06-0.122934579849D-06 0.288417400714D+01 0.124797224999D-06
    0.980272048540D+00 0.266656250000D+03-0.184807823208D+01-0.817748357917D-08
   -0.372515518432D-09 0.100000000000D+01 0.195000000000D+04 0.000000000000D+00
    0.200000000000D+01 0.000000000000D+00-0.111758708954D-07 0.120000000000D+02
    0.561600000000D+06 0.000000000000D+00 0.000000000000D+00 0.000000000000D+00
19 17  5 27 13 59 44.0-0.502069480717D-03 0.147792889038D-11 0.000000000000D+00
    0.700000000000D+01-0.153687500000D+03 0.391409171740D-08 0.239050948371D+01
   -0.832043588162D-05 0.102987131104D-01 0.692531466484D-05 0.515367543793D+04
    0.568784000000D+06 0.000000000000D+00 0.293199660751D+01-0.150874257088D-06
    0.977565301919D+00 0.254656250000D+03 0.978273801922D+00-0.778282416292D-08
   -0.422874762984D-09 0.100000000000D+01 0.195000000000D+04 0.000000000000D+00
    0.200000000000D+01 0.000000000000D+00-0.153668224812D-07 0.700000000000D+01
    0.561600000000D+06 0.000000000000D+00 0.000000000000D+00 0.000000000000D+00
20 17  5 27 13 59 44.0 0.473846681416D-03 0.147792889038D-11 0.000000000000D+00
    0.100000000000D+01 0.256875000000D+02 0.567880797372D-08-0.158141299540D+01
    0.166334211826D-05 0.432398694102D-02 0.540725886822D-05 0.515366972351D+04
    0.568784000000D+06 0.149011611938D-07-0.144884417683D+01 0.108033418655D-06
    0.926463635043D+00 0.254750000000D+03 0.159788749813D+01-0.860142971264D-08
    0.489306095849D-09 0.100000000000D+01 0.195000000000D+04 0.000000000000D+00
    0.200000000000D+01 0.000000000000D+00-0.838190317154D-08 0.100000000000D+01
    0.561600000000D+06 0.400000000000D+01 0.000000000000D+00 0.000000000000D+00
30 17  5 27 13 59 44.0 0.155759509653D-03-0.102318153950D-11 0.000000000000D+00
    0.700000000000D+01 0.130375000000D+03 0.463340743551D-08 0.284816992109D+01
    0.688061118126D-05 0.283857714385D-02 0.958144664764D-05 0.515368658447D+04
    0.568784000000D+06-0.651925802231D-07 0.801757402814D+00-0.223517417908D-07
    0.948310803900D+00 0.191093750000D+03 0.309206496953D+01-0.804176369940D-08
    0.119290688438D-09 0.100000000000D+01 0.195000000000D+04 0.000000000000D+00
    0.200000000000D+01 0.000000000000D+00 0.372529029846D-08 0.700000000000D+01
    0.564690000000D+06 0.000000000000D+00 0.000000000000D+00 0.000000000000D+00
 1 17  5 27 14  0  0.0 0.552036799490D-04 0.454747350886D-12 0.000000000000D+00
    0.103000000000D+03-0.483437500000D+02 0.391016287398D-08-0.280630915077D+01
   -0.246986746788D-05 0.668787187897D-02 0.122319906950D-04 0.515369036865D+04
    0.568800000000D+06 0.242143869400D-07-0.239414912880D+01-0.745058059692D-08
    0.967569355307D+00 0.148500000000D+03 0.549263020541D+00-0.750745557280D-08
    0.564666377764D-09 0.100000000000D+01 0.195000000000D+04 0.000000000000D+00
    0.200000000000D+01 0.000000000000D+00 0.558793544769D-08 0.103000000000D+03
    0.567336000000D+06 0.400000000000D+01 0.000000000000D+00 0.000000000000D+00
